GNOMES-1                
1 46266U 20059B   26068.53916665  .00004080  00000+0  33422-3 0  9991
2 46266  97.8057 278.7760 0005451 357.8604   2.2595 14.99848479300657
STARLINK-36175          
1 67012U 25293K   26068.49051163  .00003029  00000+0  26154-3 0  9992
2 67012  70.0001  95.1336 0002879 267.6800  92.4030 14.98333042 14851
